MEAN_MOTION;ECCENTRICITY;INCLINATION;RA_OF_ASC_NODE;ARG_OF_PERICENTER;MEAN_ANOMALY;BSTAR;MEAN_MOTION_DOT;MEAN_MOTION_DDOT;TYPE
11.96600627;0.0003521;52.0011;195.0217;155.7667;204.3335;0.00010658;-7.7E-7;0;Globalstar
11.96600622;0.0003507;52.0012;193.0012;157.329;202.7701;-2.9598E-5;-8.8E-7;0;Globalstar
11.96600603;0.00035;52.0012;192.3277;157.8578;202.241;-9.0048E-5;-9.2E-7;0;Globalstar
11.96600626;0.0003486;52.0012;190.3073;159.4242;200.6736;-0.00015763;-9.8E-7;0;Globalstar
11.9660062;0.0003464;52.001;189.6339;160.1236;199.9736;-0.00018278;-9.9E-7;0;Globalstar
11.96600631;0.0003451;52.0011;187.6133;161.663;198.4331;-0.00018444;-1.0E-6;0;Globalstar
11.96600632;0.0003447;52.0011;187.1643;162.0065;198.0893;-0.00017185;-9.9E-7;0;Globalstar
11.96600587;0.0003424;52.0011;185.3684;163.5204;196.5744;-0.00023361;-1.03E-6;0;Globalstar
11.96600593;0.0003416;52.0011;184.4704;164.2207;195.8736;-0.00015921;-9.8E-7;0;Globalstar
11.96600663;0.0003391;52.001;181.7765;166.4248;193.668;0.00011459;-7.6E-7;0;Globalstar
11.96600591;0.0003366;52.0011;179.307;168.652;191.4392;0.00014836;-7.4E-7;0;Globalstar
11.96600633;0.0003352;52.0011;177.7355;169.964;190.1264;0.00028609;-6.3E-7;0;Globalstar
11.96600621;0.0003348;52.0012;177.062;170.3976;189.6925;0.00026745;-6.5E-7;0;Globalstar
11.96600714;0.0003328;52.0012;173.9191;172.4281;187.6606;0.00040906;-5.4E-7;0;Globalstar
11.96600781;0.000331;52.0012;171.4496;174.4394;185.6479;0.00041989;-5.3E-7;0;Globalstar
11.96600827;0.0003286;52.0012;168.7558;176.5552;183.5308;0.00034336;-5.9E-7;0;Globalstar
11.96600829;0.0003283;52.0012;168.3068;176.8868;183.1989;0.00032172;-6.0E-7;0;Globalstar
11.96600852;0.0003269;52.0012;166.0619;178.6883;181.3963;0.00024277;-6.7E-7;0;Globalstar
11.96600845;0.0003248;52.0011;163.3679;180.7801;179.3031;0.00012941;-7.5E-7;0;Globalstar
11.96600855;0.0003233;52.001;161.123;182.5647;177.5173;5.7818E-5;-8.1E-7;0;Globalstar
11.9660088;0.0003215;52.0009;158.878;184.3029;175.778;3.27E-5;-8.3E-7;0;Globalstar
11.96600881;0.0003212;52.0009;158.429;184.6572;175.4235;1.5469E-5;-8.4E-7;0;Globalstar
11.96600871;0.0003193;52.0008;155.5104;187.1209;172.9582;-3.324E-5;-8.8E-7;0;Globalstar
11.96600901;0.0003175;52.0006;152.8163;189.5792;170.4984;2.6232E-5;-8.3E-7;0;Globalstar
11.966009;0.0003171;52.0005;152.3673;189.9363;170.1411;3.134E-5;-8.3E-7;0;Globalstar
11.96600891;0.0003155;52.0004;150.1223;191.8446;168.2317;8.2112E-5;-7.9E-7;0;Globalstar
11.96600859;0.000314;52.0005;147.4283;193.9984;166.0765;0.00013622;-7.5E-7;0;Globalstar
11.96600844;0.000313;52.0003;146.7547;194.6598;165.4148;0.00014123;-7.4E-7;0;Globalstar
11.96600909;0.0003114;52.0003;144.7341;196.4701;163.6035;0.00034019;-5.9E-7;0;Globalstar
11.96600964;0.0003102;52.0002;142.938;198.06;162.0127;0.00043876;-5.1E-7;0;Globalstar
11.96600972;0.0003092;52.0002;142.04;198.7945;161.2778;0.0004569;-5.0E-7;0;Globalstar
11.96600999;0.0003082;52.0001;140.2439;200.4079;159.6635;0.00044614;-5.1E-7;0;Globalstar
11.96601066;0.0003074;52.0001;139.3459;201.0043;159.0668;0.00050169;-4.6E-7;0;Globalstar
11.96601088;0.000306;52;137.5498;202.5548;157.5155;0.00040147;-5.4E-7;0;Globalstar
11.96601069;0.0003052;52;136.6518;203.4171;156.6527;0.00032351;-6.0E-7;0;Globalstar
11.96601096;0.0003041;52;135.0802;204.807;155.262;0.00025402;-6.6E-7;0;Globalstar
11.9660111;0.0003019;51.9999;132.1615;207.3762;152.6916;9.0195E-5;-7.8E-7;0;Globalstar
11.9660118;0.0003015;51.9998;131.2635;208.1562;151.9111;0.00017425;-7.2E-7;0;Globalstar
11.96601222;0.0003002;51.9999;129.4674;209.6758;150.3908;0.00013986;-7.4E-7;0;Globalstar
11.96601205;0.0002983;51.9998;127.4468;211.3933;148.6725;7.5037E-5;-7.9E-7;0;Globalstar
11.96601182;0.0002978;51.9998;126.5487;212.0826;147.9829;4.2294E-6;-8.5E-7;0;Globalstar
11.9660128;0.0002963;51.9997;123.4054;214.6042;145.4601;0.00012084;-7.6E-7;0;Globalstar
11.96601291;0.0002957;51.9997;123.1809;214.8491;145.2152;0.00014384;-7.4E-7;0;Globalstar
11.96601347;0.0002934;51.9996;120.4866;217.2299;142.8334;0.0001782;-7.1E-7;0;Globalstar
11.96601337;0.0002912;51.9997;118.0168;219.5521;140.5103;0.00016478;-7.3E-7;0;Globalstar
11.96601321;0.0002899;51.9997;115.996;221.269;138.7927;0.00012635;-7.6E-7;0;Globalstar
11.9660133;0.0002876;51.9998;113.9754;223.267;136.7941;0.00019363;-7.0E-7;0;Globalstar
11.96601302;0.0002871;51.9998;113.3018;223.8172;136.2437;0.00014233;-7.4E-7;0;Globalstar
11.96601332;0.0002852;51.9999;111.2811;225.6371;134.4232;0.00024441;-6.6E-7;0;Globalstar
11.96601337;0.0002832;52;109.934;226.9003;133.1596;0.000273;-6.4E-7;0;Globalstar
11.966014;0.0002796;52.0002;105.8927;230.5659;129.493;0.00028861;-6.3E-7;0;Globalstar
11.96601433;0.0002785;52.0003;104.7703;231.4935;128.5651;0.00027413;-6.4E-7;0;Globalstar
11.96601475;0.0002777;52.0005;102.5251;233.364;126.6941;0.00015799;-7.3E-7;0;Globalstar
11.96601521;0.0002769;52.0006;100.5045;235.1202;124.9374;9.0573E-5;-7.8E-7;0;Globalstar
11.96601539;0.000278;52.0006;99.831;235.5833;124.474;3.6408E-5;-8.2E-7;0;Globalstar
11.96601557;0.0002773;52.0007;97.8104;237.3345;122.7224;-3.8736E-5;-8.8E-7;0;Globalstar
11.96601533;0.0002779;52.0008;97.1368;237.8375;122.2192;-0.00010898;-9.4E-7;0;Globalstar
11.96601501;0.0002764;52.0008;95.1162;239.6306;120.4258;-0.000174;-9.9E-7;0;Globalstar
11.96601497;0.000277;52.0008;94.4426;240.0736;119.9826;-0.00018128;-9.9E-7;0;Globalstar
11.96601494;0.0002762;52.0009;92.6465;241.6402;118.4156;-0.00013622;-9.6E-7;0;Globalstar
11.96601497;0.0002749;52.0011;91.0749;242.9579;117.0977;-8.8027E-5;-9.2E-7;0;Globalstar
11.96601498;0.0002737;52.0013;88.6052;244.9888;115.0665;-1.0111E-5;-8.6E-7;0;Globalstar
11.96601501;0.0002726;52.0015;86.3601;246.8621;113.1928;3.5008E-5;-8.3E-7;0;Globalstar
11.96601508;0.0002725;52.0015;85.9111;247.1755;112.8794;5.4657E-5;-8.1E-7;0;Globalstar
11.96601519;0.0002727;52.0017;84.3395;248.4599;111.5947;5.9004E-5;-8.1E-7;0;Globalstar
11.96601482;0.0002717;52.0017;83.666;249.0556;110.9989;2.7263E-5;-8.3E-7;0;Globalstar
11.96601482;0.0002712;52.0018;83.2169;249.3913;110.6632;2.3784E-5;-8.3E-7;0;Globalstar
11.96601376;0.0002699;52.002;80.9719;251.2899;108.7644;-0.00012614;-9.5E-7;0;Globalstar
11.96601371;0.0002697;52.0023;80.5234;251.8068;108.2475;-0.00022742;-1.03E-6;0;Globalstar
11.96601171;0.0002666;52.0024;78.2783;253.7958;106.2585;-0.00046496;-1.21E-6;0;Globalstar
11.96601039;0.0002644;52.0026;76.2578;255.6205;104.4338;-0.00053589;-1.27E-6;0;Globalstar
11.96601029;0.0002636;52.0026;75.5843;256.1689;103.8854;-0.00053423;-1.27E-6;0;Globalstar
11.96600963;0.0002619;52.0028;73.5638;258.0525;102.0018;-0.0005446;-1.27E-6;0;Globalstar
11.96600939;0.0002607;52.0029;72.6658;258.9148;101.1395;-0.00054155;-1.27E-6;0;Globalstar
11.96600806;0.0002575;52.0031;69.9718;261.2751;98.7794;-0.00057999;-1.3E-6;0;Globalstar
11.96600772;0.0002559;52.0032;68.1759;262.7408;97.3138;-0.00055186;-1.28E-6;0;Globalstar
11.96600741;0.0002538;52.0033;67.2779;263.5178;96.537;-0.00053041;-1.26E-6;0;Globalstar
11.9660073;0.0002534;52.0033;66.8289;263.9179;96.1369;-0.00053048;-1.26E-6;0;Globalstar
11.96600724;0.0002524;52.0034;65.7065;264.8511;95.2037;-0.00049211;-1.23E-6;0;Globalstar
11.96600704;0.0002501;52.0034;64.584;265.8679;94.1872;-0.0004528;-1.2E-6;0;Globalstar
11.9660078;0.0002491;52.0036;62.788;267.4075;92.6476;-0.00032447;-1.1E-6;0;Globalstar
11.96600812;0.0002469;52.0036;61.8901;268.2762;91.7792;-0.00021483;-1.02E-6;0;Globalstar
11.96600936;0.0002459;52.0037;60.0941;269.7751;90.2804;-3.1609E-5;-8.8E-7;0;Globalstar
11.9660096;0.0002439;52.0036;59.196;270.8146;89.2411;5.306E-5;-8.1E-7;0;Globalstar
11.96601149;0.000243;52.0038;57.4001;272.3741;87.6817;0.00037372;-5.6E-7;0;Globalstar
11.96601214;0.0002415;52.0038;56.7266;272.9841;87.0719;0.00048195;-4.8E-7;0;Globalstar
11.96601312;0.0002405;52.004;54.7062;274.6806;85.3756;0.00054748;-4.3E-7;0;Globalstar
11.9660148;0.0002377;52.0041;52.4613;276.7274;83.3292;0.00064533;-3.5E-7;0;Globalstar
11.96601606;0.0002387;52.0042;51.3389;277.7847;82.2718;0.000715;-3.0E-7;0;Globalstar
11.96601934;0.0002367;52.0043;48.645;279.9127;80.1442;0.00083946;-2.0E-7;0;Globalstar
11.96602151;0.0002359;52.0044;45.9512;282.4084;77.6488;0.00075048;-2.7E-7;0;Globalstar
11.96602354;0.0002374;52.0045;44.1554;283.7445;76.3127;0.00075006;-2.7E-7;0;Globalstar
11.96602418;0.0002371;52.0045;43.2574;284.6708;75.3866;0.0007246;-2.9E-7;0;Globalstar
11.96602513;0.0002365;52.0045;41.4615;286.0215;74.0361;0.00061083;-3.8E-7;0;Globalstar
11.96602552;0.0002365;52.0045;40.7881;286.6892;73.3685;0.00060231;-3.9E-7;0;Globalstar
11.96602668;0.0002365;52.0045;38.7676;288.2977;71.7602;0.00054778;-4.3E-7;0;Globalstar
11.9660277;0.0002361;52.0045;38.0943;289.1486;70.9094;0.00061027;-3.8E-7;0;Globalstar
11.96602881;0.0002366;52.0046;36.0739;290.9303;69.128;0.0005263;-4.5E-7;0;Globalstar
11.96602783;0.0002388;52.0053;35.4006;292.6477;67.4107;0.00021801;-6.8E-7;0;Globalstar
11.96603201;0.0002346;52.0047;30.2372;296.2445;63.815;0.00041873;-5.3E-7;0;Globalstar
11.96603251;0.0002352;52.0047;27.9922;298.0036;62.0562;0.00034885;-5.8E-7;0;Globalstar
11.96603281;0.0002375;52.0046;27.5433;297.9962;62.0634;0.00035286;-5.8E-7;0;Globalstar
11.96603315;0.0002361;52.0047;25.2983;299.7606;60.2995;0.0003174;-6.1E-7;0;Globalstar
11.96603332;0.0002363;52.0046;24.6249;300.427;59.6332;0.00033777;-5.9E-7;0;Globalstar
11.96603357;0.0002366;52.0046;22.6044;302.1112;57.9495;0.00034476;-5.9E-7;0;Globalstar
11.96603406;0.0002359;52.0046;20.1351;304.2264;55.8349;0.0003805;-5.6E-7;0;Globalstar
11.96603372;0.0002361;52.0046;19.4616;304.8704;55.1911;0.00034775;-5.8E-7;0;Globalstar
11.96603301;0.0002344;52.0046;17.4412;306.5052;53.5568;0.00015256;-7.3E-7;0;Globalstar
11.96603208;0.0002345;52.0046;14.7472;308.4842;51.5784;-0.00015665;-9.7E-7;0;Globalstar
11.96603183;0.0002351;52.0046;14.5227;308.7038;51.3588;-0.00018266;-9.9E-7;0;Globalstar
11.96603128;0.0002357;52.0045;13.8492;309.3361;50.7266;-0.0002736;-1.06E-6;0;Globalstar
11.96603071;0.000235;52.0045;12.0533;310.7434;49.3198;-0.0002922;-1.08E-6;0;Globalstar
